IRIDIUM 106             
1 41917U 17003A   25365.51150769  .00000075  00000+0  19765-4 0  9991
2 41917  86.4000 158.6170 0002432  91.2713 268.8762 14.34218063469172
IRIDIUM 103             
1 41918U 17003B   25365.49881702  .00000511  00000+0  17536-3 0  9995
2 41918  86.4004 158.5227 0001988 105.8444 254.2972 14.34221723469198
IRIDIUM 109             
1 41919U 17003C   25365.50516417 -.00000028  00000+0 -17116-4 0  9996
2 41919  86.4006 158.5768 0001871  96.1877 263.9532 14.34217461469164
IRIDIUM 102             
1 41920U 17003D   25365.47344973  .00000176  00000+0  55919-4 0  9995
2 41920  86.3999 158.5172 0001940  91.6411 268.5007 14.34218774469241
IRIDIUM 105             
1 41921U 17003E   25365.37441376  .00000601  00000+0  20746-3 0  9992
2 41921  86.3993 127.0490 0002030  97.9740 262.1687 14.34223817471088
IRIDIUM 104             
1 41922U 17003F   25365.48613555  .00000035  00000+0  55556-5 0  9995
2 41922  86.4008 158.5527 0001741 101.0819 259.0573 14.34217868469231
IRIDIUM 114             
1 41923U 17003G   25365.49247856  .00000338  00000+0  11380-3 0  9995
2 41923  86.4003 158.5332 0001848  99.1707 260.9698 14.34217996469211
IRIDIUM 108             
1 41924U 17003H   25365.38123189  .00000036  00000+0  56918-5 0  9999
2 41924  86.3988 126.9351 0002025  91.3260 268.8168 14.34217876471050
